{"fetched_at":"2026-07-10T07:58:41.598Z","source":"https://celestrak.org/NORAD/elements/gp.php?GROUP=oneweb&FORMAT=JSON","constellation":"oneweb","records":[{"OBJECT_NAME":"ONEWEB-0012","OBJECT_ID":"2019-010A","EPOCH":"2026-07-09T01:32:34.300896","CLASSIFICATION_TYPE":"U","MEAN_MOTION":13.16594274,"ECCENTRICITY":0.00016379,"INCLINATION":87.9074,"RA_OF_ASC_NODE":224.4403,"ARG_OF_PERICENTER":92.3203,"MEAN_ANOMALY":267.8116,"EPHEMERIS_TYPE":0,"NORAD_CAT_ID":44057,"ELEMENT_SET_NO":999,"REV_AT_EPOCH":35444,"BSTAR":-0.00044139432,"MEAN_MOTION_DOT":-0.00000156,"MEAN_MOTION_DDOT":0},{"OBJECT_NAME":"ONEWEB-0010","OBJECT_ID":"2019-010B","EPOCH":"2026-07-09T02:09:04.409568","CLASSIFICATION_TYPE":"U","MEAN_MOTION":13.1659315,"ECCENTRICITY":0.00021395,"INCLINATION":87.9089,"RA_OF_ASC_NODE":224.4309,"ARG_OF_PERICENTER":103.8899,"MEAN_ANOMALY":256.247,"EPHEMERIS_TYPE":0,"NORAD_CAT_ID":44058,"ELEMENT_SET_NO":999,"REV_AT_EPOCH":35449,"BSTAR":0.00048806639,"MEAN_MOTION_DOT":0.00000199,"MEAN_MOTION_DDOT":0},{"OBJECT_NAME":"ONEWEB-0008","OBJECT_ID":"2019-010C","EPOCH":"2026-07-09T00:56:06.628704","CLASSIFICATION_TYPE":"U","MEAN_MOTION":13.16593481,"ECCENTRICITY":0.00022286,"INCLINATION":87.9082,"RA_OF_ASC_NODE":224.4358,"ARG_OF_PERICENTER":89.346,"MEAN_ANOMALY":270.7926,"EPHEMERIS_TYPE":0,"NORAD_CAT_ID":44059,"ELEMENT_SET_NO":999,"REV_AT_EPOCH":35460,"BSTAR":-0.000094498888,"MEAN_MOTION_DOT":-2.3e-7,"MEAN_MOTION_DDOT":0},{"OBJECT_NAME":"ONEWEB-0007","OBJECT_ID":"2019-010D","EPOCH":"2026-07-09T04:01:12.069120","CLASSIFICATION_TYPE":"U","MEAN_MOTION":13.1554798,"ECCENTRICITY":0.00018654,"INCLINATION":87.8987,"RA_OF_ASC_NODE":254.842,"ARG_OF_PERICENTER":105.7031,"MEAN_ANOMALY":254.4305,"EPHEMERIS_TYPE":0,"NORAD_CAT_ID":44060,"ELEMENT_SET_NO":999,"REV_AT_EPOCH":35426,"BSTAR":0.00035386623,"MEAN_MOTION_DOT":0.00000146,"MEAN_MOTION_DDOT":0},{"OBJECT_NAME":"ONEWEB-0006","OBJECT_ID":"2019-010E","EPOCH":"2026-07-09T04:06:54.056736","CLASSIFICATION_TYPE":"U","MEAN_MOTION":13.15550217,"ECCENTRICITY":0.0002163,"INCLINATION":87.9002,"RA_OF_ASC_NODE":254.8078,"ARG_OF_PERICENTER":98.9355,"MEAN_ANOMALY":261.2021,"EPHEMERIS_TYPE":0,"NORAD_CAT_ID":44061,"ELEMENT_SET_NO":999,"REV_AT_EPOCH":35431,"BSTAR":0.00033797487,"MEAN_MOTION_DOT":0.0000014,"MEAN_MOTION_DDOT":0},{"OBJECT_NAME":"ONEWEB-0011","OBJECT_ID":"2019-010F","EPOCH":"2026-07-08T16:24:07.257312","CLASSIFICATION_TYPE":"U","MEAN_MOTION":13.15549076,"ECCENTRICITY":0.00022561,"INCLINATION":87.8999,"RA_OF_ASC_NODE":254.9149,"ARG_OF_PERICENTER":98.9804,"MEAN_ANOMALY":261.1581,"EPHEMERIS_TYPE":0,"NORAD_CAT_ID":44062,"ELEMENT_SET_NO":999,"REV_AT_EPOCH":35424,"BSTAR":-0.00020498612,"MEAN_MOTION_DOT":-6.4e-7,"MEAN_MOTION_DDOT":0},{"OBJECT_NAME":"ONEWEB-0013","OBJECT_ID":"2020-008A","EPOCH":"2026-07-09T00:33:51.967296","CLASSIFICATION_TYPE":"U","MEAN_MOTION":13.09460728,"ECCENTRICITY":0.000119,"INCLINATION":87.8499,"RA_OF_ASC_NODE":48.4173,"ARG_OF_PERICENTER":50.634,"MEAN_ANOMALY":309.4892,"EPHEMERIS_TYPE":0,"NORAD_CAT_ID":45131,"ELEMENT_SET_NO":999,"REV_AT_EPOCH":30892,"BSTAR":-0.0020310055,"MEAN_MOTION_DOT":-0.00000687,"MEAN_MOTION_DDOT":0},{"OBJECT_NAME":"ONEWEB-0017","OBJECT_ID":"2020-008B","EPOCH":"2026-07-08T14:36:52.969824","CLASSIFICATION_TYPE":"U","MEAN_MOTION":13.10377894,"ECCENTRICITY":0.00019265,"INCLINATION":87.8817,"RA_OF_ASC_NODE":31.9996,"ARG_OF_PERICENTER":92.2134,"MEAN_ANOMALY":267.9213,"EPHEMERIS_TYPE":0,"NORAD_CAT_ID":45132,"ELEMENT_SET_NO":999,"REV_AT_EPOCH":31075,"BSTAR":-0.00028542367,"MEAN_MOTION_DOT":-8.7e-7,"MEAN_MOTION_DDOT":0},{"OBJECT_NAME":"ONEWEB-0020","OBJECT_ID":"2020-008C","EPOCH":"2026-07-09T00:52:35.264928","CLASSIFICATION_TYPE":"U","MEAN_MOTION":13.10368618,"ECCENTRICITY":0.00018513,"INCLINATION":87.8815,"RA_OF_ASC_NODE":31.9139,"ARG_OF_PERICENTER":87.0124,"MEAN_ANOMALY":273.1215,"EPHEMERIS_TYPE":0,"NORAD_CAT_ID":45133,"ELEMENT_SET_NO":999,"REV_AT_EPOCH":31120,"BSTAR":-0.00072394701,"MEAN_MOTION_DOT":-0.0000024,"MEAN_MOTION_DDOT":0},{"OBJECT_NAME":"ONEWEB-0021","OBJECT_ID":"2020-008D","EPOCH":"2026-07-08T14:14:49.704576","CLASSIFICATION_TYPE":"U","MEAN_MOTION":13.10372242,"ECCENTRICITY":0.00016905,"INCLINATION":87.8813,"RA_OF_ASC_NODE":32.0165,"ARG_OF_PERICENTER":88.2363,"MEAN_ANOMALY":271.8958,"EPHEMERIS_TYPE":0,"NORAD_CAT_ID":45134,"ELEMENT_SET_NO":999,"REV_AT_EPOCH":31145,"BSTAR":-0.0020645041,"MEAN_MOTION_DOT":-0.00000708,"MEAN_MOTION_DDOT":0},{"OBJECT_NAME":"ONEWEB-0023","OBJECT_ID":"2020-008F","EPOCH":"2026-07-08T23:40:29.771616","CLASSIFICATION_TYPE":"U","MEAN_MOTION":13.10374791,"ECCENTRICITY":0.0001871,"INCLINATION":87.8829,"RA_OF_ASC_NODE":31.922,"ARG_OF_PERICENTER":80.7381,"MEAN_ANOMALY":279.3958,"EPHEMERIS_TYPE":0,"NORAD_CAT_ID":45136,"ELEMENT_SET_NO":999,"REV_AT_EPOCH":31093,"BSTAR":-0.0012640391,"MEAN_MOTION_DOT":-0.00000429,"MEAN_MOTION_DDOT":0},{"OBJECT_NAME":"ONEWEB-0024","OBJECT_ID":"2020-008G","EPOCH":"2026-07-08T12:00:38.544768","CLASSIFICATION_TYPE":"U","MEAN_MOTION":13.10369636,"ECCENTRICITY":0.00018823,"INCLINATION":87.8823,"RA_OF_ASC_NODE":32.0119,"ARG_OF_PERICENTER":92.0745,"MEAN_ANOMALY":268.0597,"EPHEMERIS_TYPE":0,"NORAD_CAT_ID":45137,"ELEMENT_SET_NO":999,"REV_AT_EPOCH":31103,"BSTAR":-0.00080355718,"MEAN_MOTION_DOT":-0.00000268,"MEAN_MOTION_DDOT":0},{"OBJECT_NAME":"ONEWEB-0025","OBJECT_ID":"2020-008H","EPOCH":"2026-07-09T00:49:56.365824","CLASSIFICATION_TYPE":"U","MEAN_MOTION":13.10369236,"ECCENTRICITY":0.00022072,"INCLINATION":87.8817,"RA_OF_ASC_NODE":31.8966,"ARG_OF_PERICENTER":84.7086,"MEAN_ANOMALY":275.4294,"EPHEMERIS_TYPE":0,"NORAD_CAT_ID":45138,"ELEMENT_SET_NO":999,"REV_AT_EPOCH":31143,"BSTAR":-0.0002590669,"MEAN_MOTION_DOT":-7.8e-7,"MEAN_MOTION_DDOT":0},{"OBJECT_NAME":"ONEWEB-0026","OBJECT_ID":"2020-008J","EPOCH":"2026-07-08T23:30:24.342624","CLASSIFICATION_TYPE":"U","MEAN_MOTION":13.11415062,"ECCENTRICITY":0.00019624,"INCLINATION":87.8876,"RA_OF_ASC_NODE":16.7284,"ARG_OF_PERICENTER":91.4195,"MEAN_ANOMALY":268.7158,"EPHEMERIS_TYPE":0,"NORAD_CAT_ID":45139,"ELEMENT_SET_NO":999,"REV_AT_EPOCH":31396,"BSTAR":0.0011389493,"MEAN_MOTION_DOT":0.00000416,"MEAN_MOTION_DDOT":0},{"OBJECT_NAME":"ONEWEB-0028","OBJECT_ID":"2020-008K","EPOCH":"2026-07-08T21:05:08.022912","CLASSIFICATION_TYPE":"U","MEAN_MOTION":13.11418267,"ECCENTRICITY":0.00013817,"INCLINATION":87.8875,"RA_OF_ASC_NODE":16.7558,"ARG_OF_PERICENTER":75.0455,"MEAN_ANOMALY":285.0826,"EPHEMERIS_TYPE":0,"NORAD_CAT_ID":45140,"ELEMENT_SET_NO":999,"REV_AT_EPOCH":31146,"BSTAR":0.00043614304,"MEAN_MOTION_DOT":0.00000167,"MEAN_MOTION_DDOT":0},{"OBJECT_NAME":"ONEWEB-0032","OBJECT_ID":"2020-008L","EPOCH":"2026-07-08T23:49:17.226336","CLASSIFICATION_TYPE":"U","MEAN_MOTION":13.10376551,"ECCENTRICITY":0.0001586,"INCLINATION":87.8818,"RA_OF_ASC_NODE":31.925,"ARG_OF_PERICENTER":71.6365,"MEAN_ANOMALY":288.4935,"EPHEMERIS_TYPE":0,"NORAD_CAT_ID":45141,"ELEMENT_SET_NO":999,"REV_AT_EPOCH":31115,"BSTAR":-0.000020808797,"MEAN_MOTION_DOT":5e-8,"MEAN_MOTION_DDOT":0}]}
